[{"OBJECT_NAME":"STARLINK-6377","OBJECT_ID":"2023-099P","EPOCH":"2026-03-09T11:15:07.708608","MEAN_MOTION":15.02537506,"ECCENTRICITY":0.0001266,"INCLINATION":43.0051,"RA_OF_ASC_NODE":250.1461,"ARG_OF_PERICENTER":270.4553,"MEAN_ANOMALY":89.6144,"EPHEMERIS_TYPE":0,"CLASSIFICATION_TYPE":"U","NORAD_CAT_ID":57341,"ELEMENT_SET_NO":999,"REV_AT_EPOCH":14608,"BSTAR":2.3861711e-5,"MEAN_MOTION_DOT":1.19e-6,"MEAN_MOTION_DDOT":0},{"OBJECT_NAME":"UNKNOWN","OBJECT_ID":"","EPOCH":"2026-03-08T12:59:39.172704","MEAN_MOTION":15.0131728,"ECCENTRICITY":0.00204305,"INCLINATION":86.3534,"RA_OF_ASC_NODE":358.469,"ARG_OF_PERICENTER":121.5673,"MEAN_ANOMALY":238.7558,"EPHEMERIS_TYPE":0,"CLASSIFICATION_TYPE":"U","NORAD_CAT_ID":270086,"ELEMENT_SET_NO":999,"REV_AT_EPOCH":9441,"BSTAR":0.0053525659,"MEAN_MOTION_DOT":0.00069778,"MEAN_MOTION_DDOT":0}]
